CUTE-1.7+APD II (CO-65) 
1 32785U 08021C   26102.47431001  .00003669  00000+0  23724-3 0  9991
2 32785  97.8246  82.5747 0007195 247.9324 112.1140 15.08842170975286
SEEDS II (CO-66)        
1 32791U 08021J   26102.41036279  .00011903  00000+0  40539-3 0  9993
2 32791  97.7529  97.2885 0003911 143.7134 216.4372 15.30557238977220
YUBILEINY (RS30)        
1 32953U 08025A   26102.50879190  .00000070  00000+0  43026-3 0  9991
2 32953  82.5059  36.2856 0020559  93.4671 266.8761 12.43177668811533
KKS-1 (KISEKI)          
1 33499U 09002H   26102.47314508  .00000975  00000+0  12695-3 0  9998
2 33499  98.1188  23.8853 0008777 135.6293 224.5625 14.82955324926457
SWISSCUBE               
1 35932U 09051B   26102.14289844  .00000776  00000+0  16337-3 0  9990
2 35932  98.4073   8.8760 0008015  62.7116 297.4900 14.62353135879504
BEESAT-1                
1 35933U 09051C   26102.46071457  .00000637  00000+0  13795-3 0  9996
2 35933  98.4001   8.9709 0006556  74.4755 285.7169 14.61612433879580
ITUPSAT1                
1 35935U 09051E   26102.46278197  .00000585  00000+0  13104-3 0  9994
2 35935  98.4089   8.2336 0008787  83.1903 277.0296 14.60340820879141
XIWANG-1 (HOPE-1)       
1 36122U 09072B   26102.50464275 -.00000302  00000+0 -67493-3 0  9994
2 36122 100.3968  57.4037 0007877  28.0682 332.0855 13.16436775784361
O/OREOS (USA 219)       
1 37224U 10062C   26102.35875921  .00001830  00000+0  17947-3 0  9990
2 37224  71.9706 229.4148 0015217 199.0499 161.0105 14.93482500106813
JUGNU                   
1 37839U 11058B   26102.39369066  .00000420  00000+0  79918-4 0  9991
2 37839  19.9625 348.1401 0018591  70.1526  87.8253 14.13756434749708
SRMSAT                  
1 37841U 11058D   26102.33085295  .00000376  00000+0  59934-4 0  9993
2 37841  19.9713  98.0792 0011715 198.3805 189.8251 14.11559813748505
STRAND-1                
1 39090U 13009E   26102.40181015  .00000241  00000+0  95294-4 0  9994
2 39090  98.3910 284.2589 0009778  70.9583 289.2663 14.37124276687615
ZACUBE-1 (TSHEPISOSAT)  
1 39417U 13066B   26102.34022994  .00002812  00000+0  22254-3 0  9994
2 39417  97.8126  64.3286 0045024 111.2692 249.3348 15.00655325670856
GOMX-1                  
1 39430U 13066Q   26102.53749284  .00001259  00000+0  19660-3 0  9999
2 39430  97.6543 307.1293 0127697 288.6615  70.0764 14.69228784660274
CUBEBUG-2 (LO-74)       
1 39440U 13066AA  26102.33847698  .00003082  00000+0  29093-3 0  9993
2 39440  97.8854  51.0845 0056452 245.0751 114.4595 14.93324323667161
FUNCUBE-1 (AO-73)       
1 39444U 13066AE  26102.34419957  .00005632  00000+0  35867-3 0  9990
2 39444  97.8223  72.4815 0038696  68.9848 291.5512 15.08557103669730
UWE-3                   
1 39446U 13066AG  26102.43245339  .00003051  00000+0  26725-3 0  9999
2 39446  97.8653  58.1156 0049429 176.5997 183.5570 14.96522682667748
UNISAT-6                
1 40012U 14033C   26102.36892227  .00002245  00000+0  24726-3 0  9994
2 40012  97.7789 256.2878 0043964 285.7391  73.8979 14.87869669636377
DUCHIFAT-1              
1 40021U 14033M   26102.09687634  .00053249  00000+0  80753-3 0  9990
2 40021  98.0567 152.5716 0002868 300.2250  59.8717 15.54454895645458
QB50P1                  
1 40025U 14033R   26102.48466681  .00006022  00000+0  30604-3 0  9991
2 40025  98.1001 109.0718 0010769  91.8566 268.3899 15.17241855643069
LILACSAT-2              
1 40908U 15049K   26102.50166003  .00012144  00000+0  22321-3 0  9996
2 40908  97.4753 136.9212 0008785 124.6307 235.5773 15.49337044585575
FOX-1A (AO-85)          
1 40967U 15058D   26102.47635378  .00001572  00000+0  15266-3 0  9996
2 40967  64.7737 123.1279 0128358  82.3784 279.1885 14.90577145103777
CAS-2T & KS-1Q          
1 41847U 16066G   26102.16230260  .00000498  00000+0  79782-4 0  9991
2 41847  98.3841 178.6407 0341630 330.0718  28.1319 14.44552122495261
RADFXSAT (FOX-1B)       
1 43017U 17073E   26102.36413737  .00005815  00000+0  26111-3 0  9990
2 43017  97.4811 330.9551 0153235 195.1172 164.5454 15.11570652455442
DIWATA-2B               
1 43678U 18084H   26102.47526278  .00001779  00000+0  14750-3 0  9994
2 43678  98.1051 295.9021 0013923  28.3325 331.8652 15.00140082406361
ES'HAIL 2               
1 43700U 18090A   26102.16755089  .00000146  00000+0  00000+0 0  9993
2 43700   0.0165 124.5441 0001224 275.4594 246.4763  1.00271003 27010
FOX-1CLIFF (AO-95)      
1 43770U 18099N   26102.11025684  .00009245  00000+0  36932-3 0  9991
2 43770  97.4446 162.6546 0008372 211.1749 148.8993 15.25324795403149
ITASAT                  
1 43786U 18099AE  26102.13018678  .00004991  00000+0  24673-3 0  9997
2 43786  97.4104 154.9799 0011906 216.5086 143.5337 15.18229992402880
JY1SAT (JO-97)          
1 43803U 18099AX  26102.15115726  .00012673  00000+0  41703-3 0  9990
2 43803  97.4190 164.8449 0007181 138.4471 221.7317 15.31623659403518
UWE-4                   
1 43880U 18111E   26102.30817384  .00018843  00000+0  43842-3 0  9997
2 43880  97.5849  27.8756 0008005 182.6803 177.4402 15.42325542400612
TIANYAN 01              
1 44881U 19093C   26102.47975678  .00000541  00000+0  67338-4 0  9991
2 44881  97.7558 176.3094 0012420 307.3103  52.6980 14.86414619341657
RS-44 & BREEZE-KM R/B   
1 44909U 19096E   26102.48952081  .00000004  00000+0 -19923-4 0  9991
2 44909  82.5262  23.3582 0216537 298.1788  59.7591 12.79747968293946
SALSAT                  
1 46495U 20068K   26102.51818653  .00005176  00000+0  18740-3 0  9993
2 46495  97.8866 101.6365 0010430 162.8962 197.2630 15.28846175305326
XW-3 (CAS-9)            
1 50466U 21131B   26102.52139641  .00000333  00000+0  11663-3 0  9999
2 50466  98.4943 195.2797 0002980 304.8864  55.2045 14.41294702225657
GREENCUBE (IO-117)      
1 53109U 22080E   26100.94937143 -.00000003  00000+0  00000+0 0  9991
2 53109  70.1502 321.6403 0008985 304.6549  55.3263  6.42583261 87742
UMKA 1 (RS40S)          
1 57172U 23091G   26102.47863868  .00003889  00000+0  18296-3 0  9994
2 57172  97.5115 161.4456 0012495 356.3084   3.8057 15.20101612154023
CUBESX-HSE 3 (RS42S)    
1 57178U 23091N   26102.46116343  .00008918  00000+0  31273-3 0  9996
2 57178  97.5148 167.2858 0009883 331.2402  28.8292 15.29641841154376
MONITOR-3 (RS58S)       
1 57180U 23091Q   26102.47900745  .00006579  00000+0  25385-3 0  9995
2 57180  97.5142 165.4919 0010937 337.8711  22.2053 15.26586217154261
MONITOR-4 (RS57S)       
1 57182U 23091S   26102.46215808  .00007037  00000+0  27055-3 0  9991
2 57182  97.5136 165.4417 0010904 338.4638  21.6140 15.26679940154264
MONITOR-2 (RS39S)       
1 57184U 23091U   26102.48640485  .00003173  00000+0  15778-3 0  9994
2 57184  97.5138 161.2035 0010730 349.5332  10.5676 15.18325606153986
SVYATOBOR 1 (RS60S)     
1 57187U 23091X   26102.48825671  .00005578  00000+0  22267-3 0  9991
2 57187  97.5148 165.9808 0008464 331.2627  28.8144 15.25543271154290
VIZARD-METEO (RS38S)    
1 57189U 23091Z   26102.50102256  .00010338  00000+0  31612-3 0  9997
2 57189  97.5138 170.7625 0006053 308.7961  51.2740 15.34038607154614
NANOZOND 1 (RS49S)      
1 57190U 23091AA  26102.45129313  .00859234  37457-3  13683-2 0  9999
2 57190  97.4932 185.9591 0010069 261.2709  98.7430 16.03696945155628
POLYTECH-UNIVERSE 3 (R*)
1 57191U 23091AB  26102.52217674  .00003428  00000+0  16899-3 0  9995
2 57191  97.5114 160.7448 0015511   4.2068 355.9294 15.18520701153988
UTMN 2 (RS27S)          
1 57203U 23091AP  26102.51557759  .00008702  00000+0  29742-3 0  9990
2 57203  97.5139 168.8934 0006910 317.7942  42.2765 15.30510222154491
KUZGTU 1 (RS47S)        
1 57217U 23091AV  26102.46284571  .00007995  00000+0  29120-3 0  9991
2 57217  97.5121 166.3328 0010140 335.1978  24.8773 15.28429188154335
SONATE-2                
1 59112U 24043Q   26101.84858785  .00028954  00000+0  44527-3 0  9996
2 59112  97.5450 248.4550 0007521  89.3606 270.8510 15.54169095117574
MESAT1                  
1 60209U 24125G   26102.54343068  .00032041  00000+0  44294-3 0  9990
2 60209  97.2405 318.8191 0012616 101.6967 258.5704 15.56991629 99331
OOV-CUBE (TUBSAT-30)    
1 60240U 24128F   26102.30752669  .00001520  00000+0  12678-3 0  9992
2 60240  61.9935  95.2341 0051727 119.3181 241.3093 15.02455305 96217
COLIBRI-S (RS67S)       
1 61746U 24199M   26102.50907172  .00015370  00000+0  32601-3 0  9991
2 61746  97.3102 335.8641 0009954 149.5031 210.6798 15.45098718127267
HORS 3 (RS81S)          
1 61753U 24199U   26102.48449068  .00022833  00000+0  39659-3 0  9993
2 61753  97.3078 337.2029 0008244 150.0545 210.1180 15.50804188127364
HORS 4 (RS82S)          
1 61754U 24199V   26102.48487970  .00028260  00000+0  43371-3 0  9994
2 61754  97.3040 338.0465 0007843 145.0330 215.1440 15.54224101127423
HORIZON (RS59S)         
1 61757U 24199Y   26102.52385259  .00204434  00000+0  92145-3 0  9991
2 61757  97.2969 343.1197 0006734 133.3632 226.8200 15.83475629127751
ARCTICSAT 1 (RS74S)     
1 61762U 24199AD  26102.16322567  .00108472  00000+0  74374-3 0  9999
2 61762  97.3005 341.9456 0007013 128.0265 232.1634 15.74371510127640
SIT-2086                
1 61764U 24199AF  26102.51781891  .00016715  00000+0  30510-3 0  9991
2 61764  97.3068 337.9117 0007677 139.0881 221.0947 15.49461381124258
HYPERVIEW 1G (RS66S)    
1 61772U 24199AP  26102.48557714  .00055816  00000+0  60593-3 0  9990
2 61772  97.3014 339.5507 0009090 145.6097 214.5751 15.63286248124378
ALTAIR (RS65S)          
1 61779U 24199AW  26102.52601159  .00008269  00000+0  23889-3 0  9992
2 61779  97.3131 332.3368 0013291 174.5035 185.6357 15.35821473127032
ASRTU-1 (AO-123)        
1 61781U 24199AY  26102.52748648  .00005661  00000+0  17004-3 0  9995
2 61781  97.3104 331.8022 0014150 177.3115 182.8207 15.34728974123851
TUSUR GO (RS78S)        
1 61782U 24199AZ  26101.93738719  .00275847  00000+0  10844-2 0  9997
2 61782  97.2903 341.5578 0007168 144.5177 215.6572 15.86179156124464
